STARLINK-4051           
1 53273U 22086AH  26068.62958638 -.00000219  00000+0  43047-5 0  9992
2 53273  53.2177 184.3919 0001515  73.7535 286.3624 15.08844762201182
YAM-8                   
1 63254U 25052AW  26068.73092778  .00007810  00000+0  47267-3 0  9993
2 63254  97.7023 329.5345 0002369 152.6796 207.4558 15.10898938 54245
